[{"OBJECT_NAME":"STARLINK-30243","OBJECT_ID":"2023-122S","EPOCH":"2026-03-09T22:00:01.999584","MEAN_MOTION":15.26710307,"ECCENTRICITY":0.00017112,"INCLINATION":43.0057,"RA_OF_ASC_NODE":91.3153,"ARG_OF_PERICENTER":274.5466,"MEAN_ANOMALY":332.2487,"EPHEMERIS_TYPE":0,"CLASSIFICATION_TYPE":"U","NORAD_CAT_ID":57648,"ELEMENT_SET_NO":999,"REV_AT_EPOCH":578,"BSTAR":0.0013693891,"MEAN_MOTION_DOT":0.00036622,"MEAN_MOTION_DDOT":0},{"OBJECT_NAME":"INNOSAT 16 (RS92S7)","OBJECT_ID":"2025-155C","EPOCH":"2026-03-09T21:55:33.190176","MEAN_MOTION":15.24188147,"ECCENTRICITY":0.00110314,"INCLINATION":97.4467,"RA_OF_ASC_NODE":36.5104,"ARG_OF_PERICENTER":164.72,"MEAN_ANOMALY":195.4373,"EPHEMERIS_TYPE":0,"CLASSIFICATION_TYPE":"U","NORAD_CAT_ID":64878,"ELEMENT_SET_NO":999,"REV_AT_EPOCH":6554,"BSTAR":0.00039576165,"MEAN_MOTION_DOT":9.587e-5,"MEAN_MOTION_DDOT":0}]
